satname,norad_id,inclination_deg,eccentricity,mean_motion_rev_per_day,perigee_km,apogee_km,l1,l2
STARLINK-1567,46038,53.0899,0.0001552,15.39631352,446.1393101870917,448.25789435803654,1 46038U 20055M   26079.91668981  .01741188  00000+0  39287-1 0  9994,2 46038  53.0899  74.2533 0001552 104.6541 359.1453 15.39631352  5682
STARLINK-1569,46039,53.1598,0.0001643,15.30172099,474.17235860936853,476.4243974745932,1 46039U 20055N   26079.91668981  .00066811  00000+0  22496-2 0  9992,2 46039  53.1598  74.5541 0001643  87.7555 215.1916 15.30172099  5739
STARLINK-1582,46043,53.1598,0.000125,15.30187677,474.3951903150255,476.10853753100673,1 46043U 20055S   26079.91668981  .00067355  00000+0  22666-2 0  9990,2 46043  53.1598  74.5444 0001250  88.8881 179.2078 15.30187677  5551
STARLINK-1591,46045,53.1552,0.0001671,15.29326439,476.67897540424747,478.9702377731692,1 46045U 20055U   26079.91668981  .00055917  00000+0  19373-2 0  9994,2 46045  53.1552  74.5463 0001671  79.6071  47.8924 15.29326439  5773
STARLINK-1524,46047,53.1607,0.0001343,15.30195345,474.3085613959274,476.1493754950525,1 46047U 20055W   26079.36606222  .00000365  00000+0  24461-4 0  9998,2 46047  53.1607  64.2470 0001343  87.4484 272.6671 15.30195345310702
STARLINK-1527,46048,53.1594,0.000127,15.30197286,474.3527962041362,476.09354968806383,1 46048U 20055X   26079.37239097  .00001291  00000+0  55712-4 0  9994,2 46048  53.1594  64.3166 0001270  90.9200 269.1946 15.30197286310684
STARLINK-1540,46051,53.1598,0.0001206,15.30197778,474.39518885914185,476.0482189785271,1 46051U 20055AA  26079.65681579  .00000731  00000+0  36791-4 0  9999,2 46051  53.1598  62.9018 0001206 101.3531 258.7606 15.30197778310767
STARLINK-1541,46052,53.1587,0.0001488,15.30199691,474.1962131125665,476.2357709629978,1 46052U 20055AB  26079.64629190  .00002356  00000+0  91647-4 0  9996,2 46052  53.1587  62.9930 0001488  94.4109 265.7062 15.30199691310720
STARLINK-1543,46053,53.1621,0.0001579,15.30196974,474.14195880636817,476.3062502431776,1 46053U 20055AC  26079.65261585  .00000791  00000+0  38855-4 0  9991,2 46053  53.1621  62.9897 0001579  97.5097 262.6083 15.30196974310756
STARLINK-1548,46054,53.1599,0.0001316,15.30205871,474.2956409021972,476.0994385530539,1 46054U 20055AD  26079.79062187  .00003470  00000+0  12919-3 0  9993,2 46054  53.1599  62.3492 0001316  93.3489 266.7663 15.30205871310772
STARLINK-1554,46055,53.1616,0.0001379,15.30194406,474.2866925922026,476.17685169956076,1 46055U 20055AE  26079.78852669  .00000121  00000+0  16215-4 0  9999,2 46055  53.1616  62.4816 0001379  96.5935 263.5222 15.30194406310771
STARLINK-1564,46058,53.1624,0.0001667,15.301957,474.08545254406727,476.3703644045527,1 46058U 20055AH  26079.65584745 -.00000429  00000+0 -23487-5 0  9998,2 46058  53.1624  63.4307 0001667  84.2318 275.8873 15.30195700310741
STARLINK-1570,46059,53.1616,0.000128,15.3018102,474.394504545101,476.1489771827619,1 46059U 20055AJ  26079.68527588 -.00000500  00000+0 -47556-5 0  9997,2 46059  53.1616  62.8347 0001280  97.7829 262.3317 15.30181020310718
STARLINK-1572,46060,53.1591,0.0001105,15.30192726,474.4794905546005,475.994086161827,1 46060U 20055AK  26079.37558473  .00000368  00000+0  24540-4 0  9999,2 46060  53.1591  64.4793 0001105  69.8565 290.2554 15.30192726310671
STARLINK-1573,46061,53.1635,0.0001678,15.30203368,474.05502240703936,476.35500398666954,1 46061U 20055AL  26079.66945995 -.00001552  00000+0 -40259-4 0  9994,2 46061  53.1635  62.8625 0001678  87.5401 272.5792 15.30203368310759
STARLINK-1577,46063,53.1602,0.0001226,15.30201346,474.37083003789667,476.05127097988134,1 46063U 20055AN  26079.23858779  .00003517  00000+0  13081-3 0  9995,2 46063  53.1602  64.8348 0001226  84.8847 275.2294 15.30201346310685
STARLINK-1583,46064,53.1605,0.0001779,15.30198982,473.9988971116254,476.43732085940246,1 46064U 20055AP  26079.66630287  .00012643  00000+0  43827-3 0  9996,2 46064  53.1605  62.8806 0001779  88.0945 272.0260 15.30198982310740
STARLINK-1525,46066,53.0551,0.0001442,15.26593716,485.01416592911755,486.99378418632386,1 46066U 20055AR  26079.91668981  .00980663  00000+0  34067-1 0  9998,2 46066  53.0551  44.9869 0001442 110.7659 155.6752 15.26593716  5778
STARLINK-1536,46070,53.0564,0.0001474,15.06396019,546.2029609808797,548.2445573326786,1 46070U 20055AV  26079.89638685  .00000423  00000+0  47295-4 0  9995,2 46070  53.0564  46.3097 0001474  87.5547 272.5611 15.06396019311002
STARLINK-1542,46073,53.0565,0.0001398,15.06400539,546.2417424839441,548.1780694788567,1 46073U 20055AY  26079.62362085  .00001174  00000+0  97661-4 0  9993,2 46073  53.0565  47.5345 0001398  93.2255 266.8894 15.06400539310955
STARLINK-1549,46074,53.0556,0.0001422,15.06393812,546.2457360701464,548.2153105937814,1 46074U 20055AZ  26079.27714424  .00000247  00000+0  35497-4 0  9992,2 46074  53.0556  49.0891 0001422  85.6529 274.4623 15.06393812310899
STARLINK-1551,46075,53.056,0.0001343,15.06399714,546.2823600581723,548.1425089162767,1 46075U 20055BA  26079.63468815  .00001505  00000+0  11990-3 0  9992,2 46075  53.0560  47.4850 0001343  88.9174 271.1969 15.06399714310957
STARLINK-1552,46076,53.0552,0.0001408,15.06409823,546.2063671836004,548.1565368596912,1 46076U 20055BB  26079.19604071  .00001967  00000+0  15089-3 0  9995,2 46076  53.0552  49.4532 0001408  90.3126 269.8024 15.06409823310874
STARLINK-1559,46077,53.0263,0.0004456,15.30670749,470.7566304803595,476.8630855202091,1 46077U 20055BC  26079.53338912  .00040003  00000+0  13356-2 0  9990,2 46077  53.0263  23.4207 0004456  76.9735 283.1762 15.30670749311241
STARLINK-1566,46079,53.0566,0.0001533,15.06395584,546.1634343665592,548.2867503840826,1 46079U 20055BE  26079.61257209  .00002871  00000+0  21158-3 0  9991,2 46079  53.0566  47.5842 0001533  96.6034 263.5130 15.06395584310957
STARLINK-1568,46080,53.0624,0.0006379,15.47344386,420.1588556554825,428.83765771596245,1 46080U 20055BF  26079.86421473  .00034351  00000+0  66660-3 0  9991,2 46080  53.0624 339.6118 0006379 152.9352 207.1989 15.47344386311920
STARLINK-1578,46082,53.0556,0.0001302,15.06397719,546.3168675911102,548.1202301760404,1 46082U 20055BH  26079.62731278 -.00000278  00000+0  21853-6 0  9994,2 46082  53.0556  47.5180 0001302  88.4627 271.6511 15.06397719310951
STARLINK-1579,46083,53.0563,0.0001393,15.06393956,546.2653783551968,548.1947856242386,1 46083U 20055BJ  26079.59687510 -.00000346  00000+0 -43667-5 0  9993,2 46083  53.0563  47.6443 0001393  93.7799 266.3350 15.06393956310942
